CCSDS_OMM_VERS = 2.0
CREATION_DATE  = 
ORIGINATOR     = 

OBJECT_NAME    = ALOS-2
OBJECT_ID      = 2014-029A
CENTER_NAME    = EARTH
REF_FRAME      = TEME
TIME_SYSTEM    = UTC
MEAN_ELEMENT_THEORY = SGP/SGP4

EPOCH          = 2026-03-23T22:06:57.954240
MEAN_MOTION    = 14.79426719
ECCENTRICITY   = .00018732
INCLINATION    = 97.9189
RA_OF_ASC_NODE = 181.3117
ARG_OF_PERICENTER = 107.6679
MEAN_ANOMALY   = 252.4737

EPHEMERIS_TYPE = 0
CLASSIFICATION_TYPE = U
NORAD_CAT_ID   = 39766
ELEMENT_SET_NO = 999
REV_AT_EPOCH   = 63897
BSTAR          = .13382422E-3
MEAN_MOTION_DOT = .947E-5
MEAN_MOTION_DDOT = 0

CCSDS_OMM_VERS = 2.0
CREATION_DATE  = 
ORIGINATOR     = 

OBJECT_NAME    = YAOGAN-29
OBJECT_ID      = 2015-069A
CENTER_NAME    = EARTH
REF_FRAME      = TEME
TIME_SYSTEM    = UTC
MEAN_ELEMENT_THEORY = SGP/SGP4

EPOCH          = 2026-03-23T23:07:31.081152
MEAN_MOTION    = 14.83010760
ECCENTRICITY   = .00008732
INCLINATION    = 98.0120
RA_OF_ASC_NODE = 111.4297
ARG_OF_PERICENTER = 12.0769
MEAN_ANOMALY   = 348.0465

EPHEMERIS_TYPE = 0
CLASSIFICATION_TYPE = U
NORAD_CAT_ID   = 41038
ELEMENT_SET_NO = 999
REV_AT_EPOCH   = 55799
BSTAR          = .10118562E-3
MEAN_MOTION_DOT = .768E-5
MEAN_MOTION_DDOT = 0

CCSDS_OMM_VERS = 2.0
CREATION_DATE  = 
ORIGINATOR     = 

OBJECT_NAME    = ASTRO-H (HITOMI)
OBJECT_ID      = 2016-012A
CENTER_NAME    = EARTH
REF_FRAME      = TEME
TIME_SYSTEM    = UTC
MEAN_ELEMENT_THEORY = SGP/SGP4

EPOCH          = 2026-03-23T18:42:42.111648
MEAN_MOTION    = 15.10090163
ECCENTRICITY   = .00096039
INCLINATION    = 30.9989
RA_OF_ASC_NODE = 265.6163
ARG_OF_PERICENTER = 113.2073
MEAN_ANOMALY   = 246.9577

EPHEMERIS_TYPE = 0
CLASSIFICATION_TYPE = U
NORAD_CAT_ID   = 41337
ELEMENT_SET_NO = 999
REV_AT_EPOCH   = 55436
BSTAR          = .17212658E-3
MEAN_MOTION_DOT = .297E-4
MEAN_MOTION_DDOT = 0

CCSDS_OMM_VERS = 2.0
CREATION_DATE  = 
ORIGINATOR     = 

OBJECT_NAME    = HXMT (HUIYAN)
OBJECT_ID      = 2017-034A
CENTER_NAME    = EARTH
REF_FRAME      = TEME
TIME_SYSTEM    = UTC
MEAN_ELEMENT_THEORY = SGP/SGP4

EPOCH          = 2026-03-23T22:17:15.416160
MEAN_MOTION    = 15.17644643
ECCENTRICITY   = .00325559
INCLINATION    = 43.0145
RA_OF_ASC_NODE = 297.5003
ARG_OF_PERICENTER = 322.7405
MEAN_ANOMALY   = 37.1185

EPHEMERIS_TYPE = 0
CLASSIFICATION_TYPE = U
NORAD_CAT_ID   = 42758
ELEMENT_SET_NO = 999
REV_AT_EPOCH   = 48470
BSTAR          = .28252729E-3
MEAN_MOTION_DOT = .5629E-4
MEAN_MOTION_DDOT = 0

CCSDS_OMM_VERS = 2.0
CREATION_DATE  = 
ORIGINATOR     = 

OBJECT_NAME    = SAOCOM 1A
OBJECT_ID      = 2018-076A
CENTER_NAME    = EARTH
REF_FRAME      = TEME
TIME_SYSTEM    = UTC
MEAN_ELEMENT_THEORY = SGP/SGP4

EPOCH          = 2026-03-23T22:30:20.462976
MEAN_MOTION    = 14.82156118
ECCENTRICITY   = .00014529
INCLINATION    = 97.8897
RA_OF_ASC_NODE = 270.9092
ARG_OF_PERICENTER = 86.8963
MEAN_ANOMALY   = 273.2416

EPHEMERIS_TYPE = 0
CLASSIFICATION_TYPE = U
NORAD_CAT_ID   = 43641
ELEMENT_SET_NO = 999
REV_AT_EPOCH   = 40347
BSTAR          = .11779577E-3
MEAN_MOTION_DOT = .886E-5
MEAN_MOTION_DDOT = 0

CCSDS_OMM_VERS = 2.0
CREATION_DATE  = 
ORIGINATOR     = 

OBJECT_NAME    = H-2A R/B
OBJECT_ID      = 2018-084L
CENTER_NAME    = EARTH
REF_FRAME      = TEME
TIME_SYSTEM    = UTC
MEAN_ELEMENT_THEORY = SGP/SGP4

EPOCH          = 2026-03-23T22:44:02.315328
MEAN_MOTION    = 15.41945139
ECCENTRICITY   = .00241538
INCLINATION    = 98.8706
RA_OF_ASC_NODE = 303.3880
ARG_OF_PERICENTER = 335.9136
MEAN_ANOMALY   = 24.0975

EPHEMERIS_TYPE = 0
CLASSIFICATION_TYPE = U
NORAD_CAT_ID   = 43682
ELEMENT_SET_NO = 999
REV_AT_EPOCH   = 40797
BSTAR          = .47257482E-3
MEAN_MOTION_DOT = .20233E-3
MEAN_MOTION_DDOT = 0

CCSDS_OMM_VERS = 2.0
CREATION_DATE  = 
ORIGINATOR     = 

OBJECT_NAME    = SAOCOM 1B
OBJECT_ID      = 2020-059A
CENTER_NAME    = EARTH
REF_FRAME      = TEME
TIME_SYSTEM    = UTC
MEAN_ELEMENT_THEORY = SGP/SGP4

EPOCH          = 2026-03-23T23:15:18.055008
MEAN_MOTION    = 14.82152551
ECCENTRICITY   = .00015278
INCLINATION    = 97.8898
RA_OF_ASC_NODE = 270.0380
ARG_OF_PERICENTER = 85.4431
MEAN_ANOMALY   = 274.6956

EPHEMERIS_TYPE = 0
CLASSIFICATION_TYPE = U
NORAD_CAT_ID   = 46265
ELEMENT_SET_NO = 999
REV_AT_EPOCH   = 30086
BSTAR          = .96367163E-4
MEAN_MOTION_DOT = .715E-5
MEAN_MOTION_DDOT = 0

CCSDS_OMM_VERS = 2.0
CREATION_DATE  = 
ORIGINATOR     = 

OBJECT_NAME    = CSS (TIANHE)
OBJECT_ID      = 2021-035A
CENTER_NAME    = EARTH
REF_FRAME      = TEME
TIME_SYSTEM    = UTC
MEAN_ELEMENT_THEORY = SGP/SGP4

EPOCH          = 2026-03-23T18:58:09.304608
MEAN_MOTION    = 15.61400224
ECCENTRICITY   = .00048761
INCLINATION    = 41.4662
RA_OF_ASC_NODE = 122.3160
ARG_OF_PERICENTER = 5.1378
MEAN_ANOMALY   = 354.9510

EPHEMERIS_TYPE = 0
CLASSIFICATION_TYPE = U
NORAD_CAT_ID   = 48274
ELEMENT_SET_NO = 999
REV_AT_EPOCH   = 27981
BSTAR          = .27623776E-3
MEAN_MOTION_DOT = .2399E-3
MEAN_MOTION_DDOT = 0

CCSDS_OMM_VERS = 2.0
CREATION_DATE  = 
ORIGINATOR     = 

OBJECT_NAME    = COSMOS 2550
OBJECT_ID      = 2021-056A
CENTER_NAME    = EARTH
REF_FRAME      = TEME
TIME_SYSTEM    = UTC
MEAN_ELEMENT_THEORY = SGP/SGP4

EPOCH          = 2026-03-20T16:01:39.961632
MEAN_MOTION    = 15.33831865
ECCENTRICITY   = .00082001
INCLINATION    = 67.1449
RA_OF_ASC_NODE = 7.6743
ARG_OF_PERICENTER = 268.9234
MEAN_ANOMALY   = 91.0981

EPHEMERIS_TYPE = 0
CLASSIFICATION_TYPE = U
NORAD_CAT_ID   = 48865
ELEMENT_SET_NO = 999
REV_AT_EPOCH   = 26514
BSTAR          = .125398E-6
MEAN_MOTION_DOT = -.188E-5
MEAN_MOTION_DDOT = 0

CCSDS_OMM_VERS = 2.0
CREATION_DATE  = 
ORIGINATOR     = 

OBJECT_NAME    = CZ-2C R/B
OBJECT_ID      = 2022-058K
CENTER_NAME    = EARTH
REF_FRAME      = TEME
TIME_SYSTEM    = UTC
MEAN_ELEMENT_THEORY = SGP/SGP4

EPOCH          = 2026-03-23T18:43:58.600704
MEAN_MOTION    = 15.55242660
ECCENTRICITY   = .00416671
INCLINATION    = 50.1878
RA_OF_ASC_NODE = 245.7487
ARG_OF_PERICENTER = 261.0404
MEAN_ANOMALY   = 98.5850

EPHEMERIS_TYPE = 0
CLASSIFICATION_TYPE = U
NORAD_CAT_ID   = 52794
ELEMENT_SET_NO = 999
REV_AT_EPOCH   = 21232
BSTAR          = .51074579E-3
MEAN_MOTION_DOT = .36312E-3
MEAN_MOTION_DDOT = 0

CCSDS_OMM_VERS = 2.0
CREATION_DATE  = 
ORIGINATOR     = 

OBJECT_NAME    = CZ-2C R/B
OBJECT_ID      = 2022-132E
CENTER_NAME    = EARTH
REF_FRAME      = TEME
TIME_SYSTEM    = UTC
MEAN_ELEMENT_THEORY = SGP/SGP4

EPOCH          = 2026-03-23T23:21:41.941440
MEAN_MOTION    = 15.63169879
ECCENTRICITY   = .00187086
INCLINATION    = 97.2964
RA_OF_ASC_NODE = 86.7380
ARG_OF_PERICENTER = 45.7338
MEAN_ANOMALY   = 314.5452

EPHEMERIS_TYPE = 0
CLASSIFICATION_TYPE = U
NORAD_CAT_ID   = 54039
ELEMENT_SET_NO = 999
REV_AT_EPOCH   = 19260
BSTAR          = .50219048E-3
MEAN_MOTION_DOT = .4629E-3
MEAN_MOTION_DDOT = 0

CCSDS_OMM_VERS = 2.0
CREATION_DATE  = 
ORIGINATOR     = 

OBJECT_NAME    = GSLV R/B
OBJECT_ID      = 2022-138AN
CENTER_NAME    = EARTH
REF_FRAME      = TEME
TIME_SYSTEM    = UTC
MEAN_ELEMENT_THEORY = SGP/SGP4

EPOCH          = 2026-03-23T23:03:15.884064
MEAN_MOTION    = 14.96867127
ECCENTRICITY   = .00241079
INCLINATION    = 87.3866
RA_OF_ASC_NODE = 161.5855
ARG_OF_PERICENTER = 99.3383
MEAN_ANOMALY   = 261.0576

EPHEMERIS_TYPE = 0
CLASSIFICATION_TYPE = U
NORAD_CAT_ID   = 54149
ELEMENT_SET_NO = 999
REV_AT_EPOCH   = 18606
BSTAR          = .31993937E-3
MEAN_MOTION_DOT = .3717E-4
MEAN_MOTION_DDOT = 0

