ALOS-2                  
1 39766U 14029A   26082.92150410  .00000947  00000+0  13382-3 0  9996
2 39766  97.9189 181.3117 0001873 107.6679 252.4737 14.79426719638976
YAOGAN-29               
1 41038U 15069A   26082.96355418  .00000768  00000+0  10119-3 0  9991
2 41038  98.0120 111.4297 0000873  12.0769 348.0465 14.83010760557991
ASTRO-H (HITOMI)        
1 41337U 16012A   26082.77965407  .00002970  00000+0  17213-3 0  9995
2 41337  30.9989 265.6163 0009603 113.2073 246.9577 15.10090163554361
HXMT (HUIYAN)           
1 42758U 17034A   26082.92865065  .00005629  00000+0  28253-3 0  9994
2 42758  43.0145 297.5003 0032555 322.7405  37.1185 15.17644643484703
SAOCOM 1A               
1 43641U 18076A   26082.93773684  .00000886  00000+0  11780-3 0  9996
2 43641  97.8897 270.9092 0001452  86.8963 273.2416 14.82156118403479
H-2A R/B                
1 43682U 18084L   26082.94724902  .00020233  00000+0  47257-3 0  9996
2 43682  98.8706 303.3880 0024153 335.9136  24.0975 15.41945139407979
SAOCOM 1B               
1 46265U 20059A   26082.96895897  .00000715  00000+0  96367-4 0  9995
2 46265  97.8898 270.0380 0001527  85.4431 274.6956 14.82152551300864
CSS (TIANHE)            
1 48274U 21035A   26082.79038547  .00023990  00000+0  27624-3 0  9993
2 48274  41.4662 122.3160 0004876   5.1378 354.9510 15.61400224279813
COSMOS 2550             
1 48865U 21056A   26079.66782363 -.00000188  00000+0  12540-6 0  9995
2 48865  67.1449   7.6743 0008200 268.9234  91.0981 15.33831865265144
CZ-2C R/B               
1 52794U 22058K   26082.78053936  .00036312  00000+0  51075-3 0  9998
2 52794  50.1878 245.7487 0041667 261.0404  98.5850 15.55242660212327
CZ-2C R/B               
1 54039U 22132E   26082.97340210  .00046290  00000+0  50219-3 0  9995
2 54039  97.2964  86.7380 0018708  45.7338 314.5452 15.63169879192603
GSLV R/B                
1 54149U 22138AN  26082.96060051  .00003717  00000+0  31994-3 0  9990
2 54149  87.3866 161.5855 0024107  99.3383 261.0576 14.96867127186062
